406P/Gibbs,e,1.2135,11.4726,352.3740,3.573990,0.1458727,0.54197655,35.6331,05/18.0/2021,2000,g 17.0,4.0
# From MPEC 2021-F20
407P/PANSTARRS-Fuls,e,4.8932,80.8254,92.5318,3.458214,0.1532591,0.38482915,72.3066,05/18.0/2021,2000,g 14.0,4.0
# From MPEC 2021-F20
408P/Novichonok-Gerke,e,19.3179,189.4679,225.9035,4.764770,0.0947635,0.27144192,312.4465,05/18.0/2021,2000,g 11.0,4.0
# From MPEC 2021-J28
409P/LONEOS-Hill,e,17.1188,143.6712,15.1334,6.048735,0.0662533,0.71001598,7.2769,05/18.0/2021,2000,g 14.0,4.0
# From MPEC 2021-F20
410P/NEAT-LINEAR,e,9.3938,139.9807,313.0969,6.630855,0.0577231,0.51031491,357.8888,05/18.0/2021,2000,g 12.5,4.0
# From MPEC 2021-J28
411P/Christensen,e,12.3775,77.6727,46.6734,5.818717,0.0702204,0.58087646,7.9748,05/18.0/2021,2000,g 13.5,4.0
# From MPEC 2021-F20
412P/WISE,e,8.9312,0.8490,155.9151,3.109678,0.1797343,0.47983764,29.4105,05/18.0/2021,2000,g 17.0,4.0
# From MPEC 2021-J28
413P/Larson,e,15.9779,39.0253,186.0369,3.710703,0.1378859,0.42332282,351.2859,05/18.0/2021,2000,g 14.0,4.0
# From MPEC 2021-BE3
414P/STEREO,e,23.3841,257.7891,210.7318,2.794856,0.2109429,0.81166421,23.7556,05/18.0/2021,2000,g 19.0,4.0
# From MPEC 2021-J28
415P/Tenagra,e,31.7917,160.2938,346.2766,4.116077,0.1180263,0.19483700,10.8281,05/18.0/2021,2000,g 12.0,4.0
# From MPEC 2021-F20
416P/Scotti,e,3.3613,355.8118,134.5231,4.013742,0.1225688,0.45439270,11.2167,05/18.0/2021,2000,g 15.5,4.0
# From MPEC 2021-J28
417P/NEOWISE,e,8.1310,111.3510,129.4589,3.347828,0.1609012,0.55433424,4.1553,05/18.0/2021,2000,g 16.5,4.0
# From MPEC 2021-J28
418P/LINEAR,e,5.7974,277.6606,307.0930,5.082047,0.0860292,0.66491715,346.8757,05/18.0/2021,2000,g 13.0,4.0
# From MPEC 2021-J28
419P/,e,2.8028,40.3907,187.4871,3.522038,0.1491121,0.27788764,335.7829,05/18.0/2021,2000,g 12.5,4.0
# From MPEC 2021-F20
420P/Hill,e,14.5029,173.9603,157.1458,5.520222,0.0759922,0.49486347,331.8925,05/18.0/2021,2000,g 11.5,4.0
# From MPC107687
1I/`Oumuamua,h,09/09.4886/2017,122.6778,24.5997,241.6845,1.199252,0.255240,2000,23.0,2.0
# From MPEC 2020-K19
2I/Borisov,h,12/08.5549/2019,44.0527,308.1480,209.1251,3.356636,2.006548,2000,11.0,4.0
